EARTHCARE               
1 59908U 24101A   24238.90208057  .00023617  00000+0  32880-3 0  9991
2 59908  96.9864   5.0536 0003655 187.4066 172.7137 15.56940811 13827
